#dP2023  1 11 12  0  0.00000000      96 __u+U ITR00 EXT  IAC
## 2244 302400.00000000   900.00000000 59955 0.5000000000000
+  119   C06C07C08C09C10C11C12C13C14C16C19C20C21C22C23C24C25
+        C26C27C28C29C30C32C33C34C35C36C37C38C39C40C41C42C43
+        C44C45C46E01E02E03E04E05E07E08E09E10E11E12E13E14E15
+        E18E19E21E24E25E26E27E30E31E33E34E36G01G02G03G04G05
+        G06G07G08G09G10G11G12G13G14G15G16G17G18G19G20G21G22
+        G23G24G25G26G27G29G30G31G32J02J03J04R01R02R03R04R05
+        R07R08R09R11R12R13R14R15R16R17R18R19R20R21R22R24R25
++         0  0  0  0  0  0  0  0  0  0  0  0  0  0  0  0  0
++         0  0  0  0  0  0  0  0  0  0  0  0  0  0  0  0  0
++         0  0  0  0  0  0  0  0  0  0  0  0  0  0  0  0  0
++         0  0  0  0  0  0  0  0  0  0  0  0  0  0  0  0  0
++         0  0  0  0  0  0  0  0  0  0  0  0  0  0  0  0  0
++         0  0  0  0  0  0  0  0  0  0  0  0  0  0  0  0  0
++         0  0  0  0  0  0  0  0  0  0  0  0  0  0  0  0  0
%c M  cc GPS ccc cccc cccc cccc cccc ccccc ccccc ccccc ccccc
%c cc cc ccc ccc cccc cccc cccc cccc ccccc ccccc ccccc ccccc
%f  0.0000000  0.000000000  0.00000000000  0.000000000000000
%f  0.0000000  0.000000000  0.00000000000  0.000000000000000
%i    0    0    0    0      0      0      0      0         0
%i    0    0    0    0      0      0      0      0         0
/* IAC                                ULTRA-RAPID PREDICTION
/* S/V CLOCKS ARE ALIGNED TO GNSS TIME                      
/* G:C1WC2W R:C1PC2P E:C1XC5X C:C2IC6I J:C1CC2S             
/* PCV:IGS20_2239 OL/AL:FES2004  NONE     YN ORB:CoN CLK:CoN
*  2023 01 11 17 30  0.00000000
PC06 -17040.948090  27012.793513 -27649.729158    206.241570
PC07  -7744.313181  40908.164251  -5975.729815     30.396204
PC08   1773.816408  25668.750221  33474.067417    527.418492
PC09  -9241.809586  26212.825667 -31470.619678    220.551708
PC10  -3045.140210  41763.238821   -650.175416     34.217947
PC11 -23357.089800  14730.880666   4021.824209   -183.705384
PC12 -24436.347839   2918.009681 -13106.823399    392.322836
PC13   6367.174455  28560.112228  30628.486058    180.849921
PC14 -12474.410128  17695.357494  17595.748658    357.872031
PC16 -19605.956882  26455.757188 -26324.561190     84.014468
PC19   7499.701941 -24888.674285 -10146.803663   -897.566004
PC20  14902.977777  -9688.972524 -21506.160374    771.264101
PC21 -13841.202837 -12596.990550  20720.017348   -917.656047
PC22  -4529.275973 -26477.027503   7600.139398   -691.108888
PC23  11046.065385  20177.527632 -15810.315771   -871.306184
PC24 -23063.977973   -898.234890 -15681.013613   -554.388620
PC25  -7133.892404  14688.040244 -22643.210526     53.896736
PC26 -24476.062737 -13314.963645  -1122.263711    -62.879276
PC27  20097.236665   4198.428232  18877.566183     80.048313
PC28   3847.992030  15788.004435  22693.597481     57.747383
PC29  15562.782247 -19315.456264 -12783.464425     66.072731
PC30  25307.168883 -10579.013466   5064.077428      1.275847
PC32  13911.486183  12568.008712 -20654.336338   -653.364688
PC33  -7446.946248  24852.496806  10268.925668   -881.998882
PC34 -25198.352973  11375.420333  -3900.044530     81.419383
PC35  -3012.163490 -16352.669589 -22412.211679    273.395679
PC36   8185.672594 -14097.919316  22663.735087   -701.925092
PC37  23725.211986  14721.246563   -233.632478   -850.899675
PC38  -7157.864713  23011.412745  34650.891868     51.261319
PC39 -24089.540905  27032.939285 -21751.041531     -1.379917
PC40 -13580.727186  38673.771935  -9344.608811    -12.291082
PC41   4223.777479  26678.697596  -6963.598807   -482.358428
PC42 -15212.260989   8252.398243  21930.430018   -902.009854
PC43 -16270.266881  19200.417258  12078.163828      1.558757
PC44 -20195.754138  -3713.605282 -18921.024170    174.069289
PC45 -11433.895432 -20102.098155  15589.361554    -46.261495
PC46  22193.897804   -494.009151  16928.051583    -25.744659
PE01 -13534.121971 -26316.234954     -3.692877   -593.419422
PE02  13750.861245  26225.910414    345.004345     14.090903
PE03   5679.097950  19409.117051 -21619.498472   -638.920456
PE04 -18452.465108  -1248.382666  23114.283464    -33.978118
PE05 -10753.251447  26582.263818  -7353.460638   -106.175543
PE07  20672.388495 -18085.961191 -11037.040806    -14.380728
PE08  18298.966179   1234.736511 -23238.175627    -17.791327
PE09 -20616.231013  18003.670851  11257.660911   -796.466720
PE10 -29336.658656   1329.052897   3696.785313   -504.355536
PE11 -25091.823149   7836.453483  13619.809320    415.339303
PE12 -28615.933825  -4909.409234  -5806.257689   -380.465340
PE13  25620.978203  -7325.980537 -12869.362500    429.983038
PE14 -10361.885846  20570.491848   6166.336654    110.553785
PE15  28506.590895   5049.305836   6167.651627    694.835381
PE18   7128.700100 -27740.017328 -15127.617719   -521.168508
PE19  -3294.487484 -21177.644398  20415.596134  -3512.538480
PE21   -359.482517 -24773.456631  16183.351675   -505.666261
PE24 -14683.540226   8126.384659 -24399.897086  -1052.397052
PE25    114.715707  24639.651581 -16411.327159   -596.964200
PE26   6828.686684 -15567.080342 -24221.179379  -1854.418502
PE27  14128.108185  -9022.699080  24393.862637   -485.253583
PE30  20124.947574  12631.188219  17654.574747  -1152.106542
PE31 -20137.449848 -11856.955898 -18157.017074   -513.053403
PE33 -14563.152709 -14341.448966 -21403.089407   -454.410339
PE34  14754.407872  14276.952768  21327.079651    -24.315590
PE36  -7761.651995  15269.894887  24150.886950   -488.930129
PG01 -15379.756588 -13502.562912 -17431.677370    225.709029
PG02  18137.630068  11608.417446  16032.116207   -627.913851
PG03 -12657.009666 -23150.517770   3418.569527   -372.738842
PG04  -7100.004611 -14611.056421  20997.684404    -50.756321
PG05   3797.623915  24014.231490  10379.585424   -111.599175
PG06 -21935.430530   6464.220944  13652.631501    556.805597
PG07 -25252.123788  -7155.694903   5946.200177    260.439650
PG08   2363.631970 -21668.934750 -14953.361436   -103.074198
PG09 -15687.378651  -3561.744043  21063.969169   -238.209576
PG10  14987.425888  -2272.668061 -21670.987441    -19.995656
PG11 -10374.169275  12902.806277  20772.254967    -76.443541
PG12  10227.261562  24464.146836   2039.524687   -326.884501
PG13 -10978.973745  21723.863297 -10572.741738    457.647996
PG14 -16300.702709   -387.585167 -20980.365005    -51.381799
PG15    915.094097  21945.904081 -15186.717523      3.746484
PG16   1655.078257 -22808.538666  12807.512877   -524.136312
PG17 -20207.650816   9260.637522 -14169.390121    692.643264
PG18  26043.357418   5047.039888   2434.346982    -95.028517
PG19 -19924.045715  16630.137328  -5159.459433    262.752358
PG20  -4522.468331  18118.277102  18995.347433    457.705600
PG21  -7613.710047 -14499.809616 -20470.431013    153.368937
PG22      0.000000      0.000000      0.000000    403.776348
PG23  17683.754725   9612.953029 -17402.162508      2.187944
PG24  11732.160134  14602.295661 -19325.331330    -25.484199
PG25  16171.468854  18543.666625  10050.017036    410.392218
PG26   9683.445099 -13876.919098  20290.896274    240.130985
PG27  11733.923959 -22895.723110  -5873.780772    129.590055
PG29  13299.361335   7068.086294  21838.072742   -579.794653
PG30 -25851.025652   1582.876017  -6379.448407   -533.512628
PG31  21174.171982  -7452.789960  14377.918006   -206.030467
PG32  19700.490511 -12428.845789 -12413.911895   -360.669938
PJ02 -20762.855328  22448.931009 -24434.768550     -0.547273
PJ03 -29189.306147  27840.380233  17180.433332     -0.077023
PJ04 -27161.977434  28759.814786  20572.221460    118.346216
PR01  11634.470552  -4193.321878 -22310.634971     21.078897
PR02   9726.824007 -20990.728218 -10624.620718    -23.328480
PR03   1919.072548 -24497.880817   6769.313922     70.681062
PR04  -6448.417847 -14348.245409  20101.478443    171.945427
PR05 -11513.532223   3585.942351  22491.412953    106.009017
PR07  -1623.415518  24377.382565  -7391.245843     47.801674
PR08   6632.610411  14257.002301 -20040.454530    -68.970790
PR09  -7023.110672   8884.616768 -22841.963715     97.998070
PR11  18874.086616  17116.524620  -1074.573796      7.322972
PR12  18575.810826   5917.534569  16480.867759     24.242715
PR13   8288.657267  -7399.672012  22940.177508    -30.858145
PR14  -8538.509531 -17884.992599  16071.677237     24.206902
PR15 -19057.290375 -16954.512235     -8.656607     91.760031
PR16 -18695.278655  -6130.044361 -16248.132478      9.830946
PR17   2847.951326 -11655.286045 -22500.635507    594.864895
PR18 -14275.327350  -5205.391214 -20483.757961     61.285882
PR19 -23709.252359   2454.060285  -9076.053118   -217.878263
PR20 -20082.878182  10854.452435  11440.557715    -85.675260
PR21  -1083.686056  11158.155652  22916.197401   -364.652108
PR22  14818.896622   5735.933732  19979.638393     66.174554
PR24  19240.861058 -11818.413166 -11853.674950    138.932809
PR25  -3658.392462  11857.709147  22292.601452     51.322806
EOF
